format  = 'OEF2.0'       ! file format
rectype = '1L'           ! record type (1L/ML)
elem    = 'EQU'          ! type of orbital elements
refsys  = ECLM J2000     ! default reference system
END_OF_HEADER
'va_000160'    57291.958166  1.459724107505  0.285849540  0.187519415 -0.001113586 -0.001969781   34.9404736 22.96  0.15  0
'va_000161'    57291.958166  1.459724586664  0.285849718  0.187519536 -0.001113586 -0.001969782   34.9404875 22.96  0.15  0
'va_000162'    57291.958166  1.459725064775  0.285849896  0.187519657 -0.001113587 -0.001969783   34.9405013 22.96  0.15  0
'va_000163'    57291.958166  1.459725541861  0.285850073  0.187519777 -0.001113588 -0.001969783   34.9405151 22.96  0.15  0
'va_000164'    57291.958166  1.459726017945  0.285850250  0.187519897 -0.001113588 -0.001969784   34.9405289 22.96  0.15  0
'va_000165'    57291.958166  1.459726493048  0.285850427  0.187520017 -0.001113589 -0.001969785   34.9405426 22.96  0.15  0
'va_000166'    57291.958166  1.459726967194  0.285850603  0.187520136 -0.001113590 -0.001969786   34.9405563 22.96  0.15  0
'va_000167'    57291.958166  1.459727440404  0.285850779  0.187520255 -0.001113590 -0.001969786   34.9405700 22.96  0.15  0
'va_000168'    57291.958166  1.459727912699  0.285850954  0.187520374 -0.001113591 -0.001969787   34.9405837 22.96  0.15  0
'va_000169'    57291.958166  1.459728384102  0.285851129  0.187520493 -0.001113591 -0.001969788   34.9405973 22.96  0.15  0
'va_000170'    57291.958166  1.459728854633  0.285851304  0.187520612 -0.001113592 -0.001969788   34.9406109 22.96  0.15  0
'va_000171'    57291.958166  1.459729324313  0.285851479  0.187520730 -0.001113593 -0.001969789   34.9406245 22.96  0.15  0
'va_000172'    57291.958166  1.459729793163  0.285851653  0.187520848 -0.001113593 -0.001969790   34.9406381 22.96  0.15  0
'va_000173'    57291.958166  1.459730261203  0.285851827  0.187520966 -0.001113594 -0.001969791   34.9406516 22.96  0.15  0
'va_000174'    57291.958166  1.459730728454  0.285852001  0.187521084 -0.001113595 -0.001969791   34.9406651 22.96  0.15  0
'va_000175'    57291.958166  1.459731194935  0.285852174  0.187521202 -0.001113595 -0.001969792   34.9406786 22.96  0.15  0
'va_000176'    57291.958166  1.459731660666  0.285852347  0.187521319 -0.001113596 -0.001969793   34.9406921 22.96  0.15  0
'va_000177'    57291.958166  1.459732125666  0.285852520  0.187521436 -0.001113597 -0.001969793   34.9407055 22.96  0.15  0
'va_000178'    57291.958166  1.459732589956  0.285852693  0.187521553 -0.001113597 -0.001969794   34.9407190 22.96  0.15  0
'va_000179'    57291.958166  1.459733053554  0.285852865  0.187521670 -0.001113598 -0.001969795   34.9407324 22.96  0.15  0
'va_000180'    57291.958166  1.459733516479  0.285853037  0.187521787 -0.001113599 -0.001969796   34.9407458 22.96  0.15  0
'va_000181'    57291.958166  1.459733978749  0.285853209  0.187521903 -0.001113599 -0.001969796   34.9407591 22.96  0.15  0
'va_000182'    57291.958166  1.459734440385  0.285853381  0.187522020 -0.001113600 -0.001969797   34.9407725 22.96  0.15  0
'va_000183'    57291.958166  1.459734901403  0.285853552  0.187522136 -0.001113600 -0.001969798   34.9407858 22.96  0.15  0
'va_000184'    57291.958166  1.459735361823  0.285853723  0.187522252 -0.001113601 -0.001969798   34.9407991 22.96  0.15  0
'va_000185'    57291.958166  1.459735821662  0.285853894  0.187522368 -0.001113602 -0.001969799   34.9408124 22.96  0.15  0
'va_000186'    57291.958166  1.459736280939  0.285854065  0.187522483 -0.001113602 -0.001969800   34.9408257 22.96  0.15  0
'va_000187'    57291.958166  1.459736739670  0.285854235  0.187522599 -0.001113603 -0.001969801   34.9408390 22.96  0.15  0
'va_000188'    57291.958166  1.459737197875  0.285854406  0.187522714 -0.001113604 -0.001969801   34.9408523 22.96  0.15  0
'va_000189'    57291.958166  1.459737655570  0.285854576  0.187522830 -0.001113604 -0.001969802   34.9408655 22.96  0.15  0
'va_000190'    57291.958166  1.459738112774  0.285854746  0.187522945 -0.001113605 -0.001969803   34.9408787 22.96  0.15  0
'va_000191'    57291.958166  1.459738569502  0.285854916  0.187523060 -0.001113606 -0.001969803   34.9408919 22.96  0.15  0
'va_000192'    57291.958166  1.459739025773  0.285855085  0.187523175 -0.001113606 -0.001969804   34.9409051 22.96  0.15  0
'va_000193'    57291.958166  1.459739481603  0.285855255  0.187523290 -0.001113607 -0.001969805   34.9409183 22.96  0.15  0
'va_000194'    57291.958166  1.459739937010  0.285855424  0.187523405 -0.001113607 -0.001969806   34.9409315 22.96  0.15  0
'va_000195'    57291.958166  1.459740392010  0.285855593  0.187523519 -0.001113608 -0.001969806   34.9409447 22.96  0.15  0
'va_000196'    57291.958166  1.459740846620  0.285855762  0.187523634 -0.001113609 -0.001969807   34.9409578 22.96  0.15  0
'va_000197'    57291.958166  1.459741300857  0.285855931  0.187523748 -0.001113609 -0.001969808   34.9409709 22.96  0.15  0
'va_000198'    57291.958166  1.459741754737  0.285856100  0.187523863 -0.001113610 -0.001969808   34.9409841 22.96  0.15  0
'va_000199'    57291.958166  1.459742208277  0.285856268  0.187523977 -0.001113611 -0.001969809   34.9409972 22.96  0.15  0
'va_000200'    57291.958166  1.459742661493  0.285856437  0.187524091 -0.001113611 -0.001969810   34.9410103 22.96  0.15  0
'va_000201'    57291.958166  1.459743114401  0.285856605  0.187524206 -0.001113612 -0.001969810   34.9410234 22.96  0.15  0
'va_000202'    57291.958166  1.459743567018  0.285856773  0.187524320 -0.001113612 -0.001969811   34.9410365 22.96  0.15  0
'va_000203'    57291.958166  1.459744019360  0.285856942  0.187524434 -0.001113613 -0.001969812   34.9410496 22.96  0.15  0
'va_000204'    57291.958166  1.459744471442  0.285857110  0.187524547 -0.001113614 -0.001969813   34.9410627 22.96  0.15  0
'va_000205'    57291.958166  1.459744923282  0.285857278  0.187524661 -0.001113614 -0.001969813   34.9410757 22.96  0.15  0
'va_000206'    57291.958166  1.459745374895  0.285857445  0.187524775 -0.001113615 -0.001969814   34.9410888 22.96  0.15  0
'va_000207'    57291.958166  1.459745826296  0.285857613  0.187524889 -0.001113616 -0.001969815   34.9411018 22.96  0.15  0
'va_000208'    57291.958166  1.459746277503  0.285857781  0.187525003 -0.001113616 -0.001969815   34.9411149 22.96  0.15  0
'va_000209'    57291.958166  1.459746728529  0.285857949  0.187525116 -0.001113617 -0.001969816   34.9411279 22.96  0.15  0
'va_000210'    57291.958166  1.459747179392  0.285858116  0.187525230 -0.001113617 -0.001969817   34.9411410 22.96  0.15  0
'va_000211'    57291.958166  1.459747630107  0.285858284  0.187525344 -0.001113618 -0.001969817   34.9411540 22.96  0.15  0
'va_000212'    57291.958166  1.459748080690  0.285858451  0.187525457 -0.001113619 -0.001969818   34.9411671 22.96  0.15  0
'va_000213'    57291.958166  1.459748531156  0.285858619  0.187525571 -0.001113619 -0.001969819   34.9411801 22.96  0.15  0
'va_000214'    57291.958166  1.459748981522  0.285858786  0.187525684 -0.001113620 -0.001969819   34.9411931 22.96  0.15  0
'va_000215'    57291.958166  1.459749431802  0.285858953  0.187525798 -0.001113621 -0.001969820   34.9412061 22.96  0.15  0
'va_000216'    57291.958166  1.459749882012  0.285859121  0.187525911 -0.001113621 -0.001969821   34.9412192 22.96  0.15  0
'va_000217'    57291.958166  1.459750332168  0.285859288  0.187526024 -0.001113622 -0.001969822   34.9412322 22.96  0.15  0
'va_000218'    57291.958166  1.459750782286  0.285859455  0.187526138 -0.001113622 -0.001969822   34.9412452 22.96  0.15  0
'va_000219'    57291.958166  1.459751232381  0.285859623  0.187526251 -0.001113623 -0.001969823   34.9412582 22.96  0.15  0
'va_000220'    57291.958166  1.459751682476  0.285859790  0.187526365 -0.001113624 -0.001969824   34.9412712 22.96  0.15  0
'va_000221'    57291.958166  1.459752132594  0.285859957  0.187526478 -0.001113624 -0.001969824   34.9412843 22.96  0.15  0
'va_000222'    57291.958166  1.459752582752  0.285860125  0.187526592 -0.001113625 -0.001969825   34.9412973 22.96  0.15  0
'va_000223'    57291.958166  1.459753032965  0.285860292  0.187526705 -0.001113626 -0.001969826   34.9413103 22.96  0.15  0
'va_000224'    57291.958166  1.459753483248  0.285860459  0.187526819 -0.001113626 -0.001969826   34.9413233 22.96  0.15  0
'va_000225'    57291.958166  1.459753933617  0.285860627  0.187526932 -0.001113627 -0.001969827   34.9413364 22.96  0.15  0
'va_000226'    57291.958166  1.459754384088  0.285860794  0.187527046 -0.001113627 -0.001969828   34.9413494 22.96  0.15  0
'va_000227'    57291.958166  1.459754834676  0.285860962  0.187527159 -0.001113628 -0.001969829   34.9413624 22.96  0.15  0
'va_000228'    57291.958166  1.459755285397  0.285861129  0.187527273 -0.001113629 -0.001969829   34.9413755 22.96  0.15  0
'va_000229'    57291.958166  1.459755736267  0.285861297  0.187527386 -0.001113629 -0.001969830   34.9413885 22.96  0.15  0
'va_000230'    57291.958166  1.459756187301  0.285861465  0.187527500 -0.001113630 -0.001969831   34.9414015 22.96  0.15  0
'va_000231'    57291.958166  1.459756638515  0.285861632  0.187527614 -0.001113631 -0.001969831   34.9414146 22.96  0.15  0
'va_000232'    57291.958166  1.459757089925  0.285861800  0.187527727 -0.001113631 -0.001969832   34.9414277 22.96  0.15  0
'va_000233'    57291.958166  1.459757541547  0.285861968  0.187527841 -0.001113632 -0.001969833   34.9414407 22.96  0.15  0
'va_000234'    57291.958166  1.459757993397  0.285862136  0.187527955 -0.001113632 -0.001969833   34.9414538 22.96  0.15  0
'va_000235'    57291.958166  1.459758445491  0.285862304  0.187528069 -0.001113633 -0.001969834   34.9414669 22.96  0.15  0
'va_000236'    57291.958166  1.459758897844  0.285862472  0.187528183 -0.001113634 -0.001969835   34.9414800 22.96  0.15  0
'va_000237'    57291.958166  1.459759350474  0.285862640  0.187528297 -0.001113634 -0.001969835   34.9414930 22.96  0.15  0
'va_000238'    57291.958166  1.459759803395  0.285862809  0.187528411 -0.001113635 -0.001969836   34.9415061 22.96  0.15  0
